LEMUR-2-ANDIS           
1 42838U 17042P   26068.55941107  .00023598  00000+0  79875-3 0  9998
2 42838  97.3659 249.7950 0009101   4.3248 355.8070 15.30557934473198
STARLINK-32857          
1 62949U 25029B   26068.75859580  .00032377  00000+0  11005-2 0  9997
2 62949  53.1597 229.6251 0001132  71.1515 288.9609 15.30199584 61404
